QIANFAN-57              
1 62787U 25016C   25324.75397358  .00000120  00000+0  16800-3 0  9997
2 62787  88.9768 105.4661 0001464 128.8661 231.2621 13.50980863 44231
QIANFAN-58              
1 62788U 25016D   25324.72514818  .00000110  00000+0  15194-3 0  9991
2 62788  88.9737 105.3075 0014927  52.0153 308.2344 13.50980598 44274
QIANFAN-59              
1 62789U 25016E   25324.74983860  .00000100  00000+0  13584-3 0  9991
2 62789  88.9761 105.3733 0015393  55.3581 304.9019 13.50980013 44276
QIANFAN-60              
1 62790U 25016F   25324.70888740  .00000041  00000+0  44292-4 0  9995
2 62790  88.9743 105.3533 0016841  51.8457 308.4209 13.50976890 44254
QIANFAN-61              
1 62791U 25016G   25324.74161867  .00000087  00000+0  11644-3 0  9998
2 62791  88.9809 105.4978 0015777  51.3792 308.8768 13.50973963 44270
QIANFAN-62              
1 62792U 25016H   25324.74579694  .00000096  00000+0  12940-3 0  9990
2 62792  88.9756 105.3777 0017160  51.3244 308.9439 13.50983876 44267
QIANFAN-63              
1 62793U 25016J   25324.77049970  .00000091  00000+0  12259-3 0  9991
2 62793  88.9763 105.3252 0017319  56.2020 304.0778 13.50976993 44306
QIANFAN-64              
1 62794U 25016K   25324.73751850  .00000100  00000+0  13575-3 0  9998
2 62794  88.9749 105.3056 0015123  50.3413 309.9069 13.50978871 44297
